[{"OBJECT_NAME":"STARLINK-31144","OBJECT_ID":"2023-211R","EPOCH":"2026-03-09T01:30:41.403744","MEAN_MOTION":15.27577862,"ECCENTRICITY":0.00015079,"INCLINATION":42.9962,"RA_OF_ASC_NODE":88.3841,"ARG_OF_PERICENTER":239.6792,"MEAN_ANOMALY":120.3911,"EPHEMERIS_TYPE":0,"CLASSIFICATION_TYPE":"U","NORAD_CAT_ID":58682,"ELEMENT_SET_NO":999,"REV_AT_EPOCH":12237,"BSTAR":6.0885558e-5,"MEAN_MOTION_DOT":1.414e-5,"MEAN_MOTION_DDOT":0},{"OBJECT_NAME":"FENGYUN 1C DEB","OBJECT_ID":"1999-025CUF","EPOCH":"2026-03-09T01:34:38.628768","MEAN_MOTION":15.17132493,"ECCENTRICITY":0.01273829,"INCLINATION":98.8955,"RA_OF_ASC_NODE":293.2327,"ARG_OF_PERICENTER":89.1897,"MEAN_ANOMALY":272.3925,"EPHEMERIS_TYPE":0,"CLASSIFICATION_TYPE":"U","NORAD_CAT_ID":32185,"ELEMENT_SET_NO":999,"REV_AT_EPOCH":96318,"BSTAR":0.0036969643,"MEAN_MOTION_DOT":0.00091378,"MEAN_MOTION_DDOT":0}]
